NORAD_CAT_ID,OBJECT_NAME,OBJECT_TYPE,EPOCH,MEAN_MOTION,ECCENTRICITY,INCLINATION,RA_OF_ASC_NODE,ARG_OF_PERICENTER,MEAN_ANOMALY,BSTAR,MEAN_MOTION_DOT,MEAN_MOTION_DDOT,TLE_LINE0,TLE_LINE1,TLE_LINE2,SEMIMAJOR_AXIS,PERIOD,APOGEE,PERIGEE,DECAYED
51150.0,STARLINK-3357,PAYLOAD,2022-03-07 06:00:00,15.73190104,0.0003542,53.2166,40.845,10.1226,168.9213,-0.00065142,-0.00091062,0.0,0 STARLINK-3357,1 51150U 22005AY  22066.25001157 -.00091062  00000-0 -65142-3 0  9999,2 51150  53.2166  40.8450 0003542  10.1226 168.9213 15.73190104  8744,6727.9230000000025,91.534,352.171,347.405,0.0
51150.0,STARLINK-3357,PAYLOAD,2022-03-07 12:00:00,15.73129717,0.0003519,53.2166,39.6077,7.0749,148.63299999999995,0.00019135,0.00026243,0.0,0 STARLINK-3357,1 51150U 22005AY  22066.50001157  .00026243  00000-0  19135-3 0  9995,2 51150  53.2166  39.6077 0003519   7.0749 148.6330 15.73129717  8785,6728.096,91.537,352.32800000000015,347.593,0.0
51150.0,STARLINK-3357,PAYLOAD,2022-03-07 22:00:00,15.73148513,0.0003321,53.2172,37.5443,10.0054,346.7445,0.00059898,0.00084118,0.0,0 STARLINK-3357,1 51150U 22005AY  22066.91667824  .00084118  00000-0  59898-3 0  9994,2 51150  53.2172  37.5443 0003321  10.0054 346.7445 15.73148513  3676,6728.042,91.536,352.141,347.673,0.0
51150.0,STARLINK-3357,PAYLOAD,2022-03-08 14:00:01,15.73194224,0.0003429,53.2167,34.2465,7.4544,167.1325,9.5992e-05,0.00012869,0.0,0 STARLINK-3357,1 51150U 22005AY  22067.58334491  .00012869  00000-0  95992-4 0  9999,2 51150  53.2167  34.2465 0003429   7.4544 167.1325 15.73194224  8959,6727.9119999999975,91.534,352.084,347.47,0.0
51150.0,STARLINK-3357,PAYLOAD,2022-03-08 22:00:00,15.73247507,0.0003188999999999,53.2166,32.5884,7.2326,256.2761,-4.3098e-05,-6.681e-05,0.0,0 STARLINK-3357,1 51150U 22005AY  22067.91667824 -.00006681  00000-0 -43098-4 0  9992,2 51150  53.2166  32.5884 0003189   7.2326 256.2761 15.73247507  3719,6727.76,91.53,351.77,347.47900000000016,0.0
51150.0,STARLINK-3357,PAYLOAD,2022-03-09 06:00:00,15.73099426,0.0003426,53.217,30.9345,8.9595,343.582,-0.0020457,-0.00277406,0.0,0 STARLINK-3357,1 51150U 22005AY  22068.25001157 -.00277406  00000-0 -20457-2 0  9998,2 51150  53.2170  30.9345 0003426   8.9595 343.5820 15.73099426  9063,6728.182,91.539,352.352,347.742,0.0
51150.0,STARLINK-3357,PAYLOAD,2022-03-09 14:00:01,15.73068871,0.000346,53.2174,29.2777,7.3105,73.9009,-0.0056435,-0.00724336,0.0,0 STARLINK-3357,1 51150U 22005AY  22068.58334491 -.00724336  00000-0 -56435-2 0  9998,2 51150  53.2174  29.2777 0003460   7.3105  73.9009 15.73068871  9114,6728.269,91.541,352.462,347.806,0.0
51150.0,STARLINK-3357,PAYLOAD,2022-03-09 22:00:01,15.72554147,0.0003387,53.2177,27.6297,8.5161,161.2166,-0.005711,-0.00717515,0.0,0 STARLINK-3357,1 51150U 22005AY  22068.91668981 -.00717515  00000-0 -57110-2 0  9991,2 51150  53.2177  27.6297 0003387   8.5161 161.2166 15.72554147  3696,6729.736999999999,91.571,353.88199999999995,349.3230000000001,0.0
51150.0,STARLINK-3357,PAYLOAD,2022-03-10 14:00:01,15.71534807,0.0002929,53.2176,24.3405,5.7851,338.9484,-0.0059828999999999,-0.00719356,0.0,0 STARLINK-3357,1 51150U 22005AY  22069.58334491 -.00719356  00000-0 -59829-2 0  9995,2 51150  53.2176  24.3405 0002929   5.7851 338.9484 15.71534807  3692,6732.647,91.63,356.4840000000001,352.54,0.0
51150.0,STARLINK-3357,PAYLOAD,2022-03-10 20:00:01,15.71146149,0.0003269,53.2175,23.1073,343.7301,336.0238,-0.0059779,-0.00708067,0.0,0 STARLINK-3357,1 51150U 22005AY  22069.83334491 -.00708067  00000-0 -59779-2 0  9994,2 51150  53.2175  23.1073 0003269 343.7301 336.0238 15.71146149  9311,6733.757,91.653,357.8230000000001,353.421,0.0
51150.0,STARLINK-3357,PAYLOAD,2022-03-10 22:00:01,15.71028703,0.0003516,53.2176,22.6971,349.8343,81.5774,-0.0061642,-0.00725106,0.0,0 STARLINK-3357,1 51150U 22005AY  22069.91668981 -.00725106  00000-0 -61642-2 0  9992,2 51150  53.2176  22.6971 0003516 349.8343  81.5774 15.71028703  3700,6734.093000000003,91.66,358.325,353.59,0.0
51150.0,STARLINK-3357,PAYLOAD,2022-03-11 14:00:01,15.70000063,0.0003418,53.2175,19.4152,296.9534,305.7858,-0.0062998,-0.00710832,0.0,0 STARLINK-3357,1 51150U 22005AY  22070.58334491 -.00710832  00000-0 -62998-2 0  9998,2 51150  53.2175  19.4152 0003418 296.9534 305.7858 15.70000063  3688,6737.034000000002,91.72,361.202,356.596,0.0
51150.0,STARLINK-3357,PAYLOAD,2022-03-11 20:00:01,15.69617276,0.0004777,53.2174,18.1848,296.7652,279.6136,-0.0063864,-0.00709714,0.0,0 STARLINK-3357,1 51150U 22005AY  22070.83334491 -.00709714  00000-0 -63864-2 0  9996,2 51150  53.2174  18.1848 0004777 296.7652 279.6136 15.69617276  9472,6738.129,91.742,363.213,356.775,0.0
51150.0,STARLINK-3357,PAYLOAD,2022-03-11 22:00:00,15.69490376,0.0004588999999999,53.2177,17.7756,300.807,26.7075,-0.0064191,-0.00709525,0.0,0 STARLINK-3357,1 51150U 22005AY  22070.91667824 -.00709525  00000-0 -64191-2 0  9998,2 51150  53.2177  17.7756 0004589 300.8070  26.7075 15.69490376  3691,6738.4919999999975,91.75,363.45,357.265,0.0
51150.0,STARLINK-3357,PAYLOAD,2022-03-12 14:00:01,15.68481307,7.809999999999999e-05,53.2176,14.5009,327.3882,167.8364,-0.0069055,-0.00729109,0.0,0 STARLINK-3357,1 51150U 22005AY  22071.58334491 -.00729109  00000-0 -69055-2 0  9997,2 51150  53.2176  14.5009 0000781 327.3882 167.8364 15.68481307  3692,6741.382,91.809,363.774,362.721,0.0
51150.0,STARLINK-3357,PAYLOAD,2022-03-12 22:00:00,15.67963573,0.0001250999999999,53.2177,12.8654,35.5249,182.6393,-0.0069108,-0.00715538,0.0,0 STARLINK-3357,1 51150U 22005AY  22071.91667824 -.00715538  00000-0 -69108-2 0  9993,2 51150  53.2177  12.8654 0001251  35.5249 182.6393 15.67963573  9645,6742.866,91.839,365.575,363.887,0.0
51150.0,STARLINK-3357,PAYLOAD,2022-03-13 14:00:01,15.669442000000002,0.000104,53.2175,9.598,68.218,313.9825,-0.0072158,-0.0071643,0.0,0 STARLINK-3357,1 51150U 22005AY  22072.58334491 -.00716430  00000-0 -72158-2 0  9999,2 51150  53.2175   9.5980 0001040  68.2180 313.9825 15.66944200  3717,6745.79,91.899,368.357,366.953,0.0
51150.0,STARLINK-3357,PAYLOAD,2022-03-13 20:00:01,15.66561553,0.0001138,53.2175,8.3736,63.5175,289.5646,-0.0073156,-0.00715234,0.0,0 STARLINK-3357,1 51150U 22005AY  22072.83334491 -.00715234  00000-0 -73156-2 0  9997,2 51150  53.2175   8.3736 0001138  63.5175 289.5646 15.66561553  9781,6746.888000000001,91.921,369.521,367.986,0.0
51150.0,STARLINK-3357,PAYLOAD,2022-03-13 22:00:01,15.66434865,0.0001262999999999,53.2175,7.9663,56.2835,47.0808,-0.0073751,-0.00717202,0.0,0 STARLINK-3357,1 51150U 22005AY  22072.91668981 -.00717202  00000-0 -73751-2 0  9998,2 51150  53.2175   7.9663 0001263  56.2835  47.0808 15.66434865  3692,6747.252,91.928,369.969,368.265,0.0
51150.0,STARLINK-3357,PAYLOAD,2022-03-14 14:00:01,15.65414613,0.0001143,53.2177,4.706,82.6938,181.0305,-0.0076781,-0.00716522,0.0,0 STARLINK-3357,1 51150U 22005AY  22073.58335648 -.00716522  00000-0 -76781-2 0  9993,2 51150  53.2177   4.7060 0001143  82.6938 181.0305 15.65414613  3693,6750.184,91.988,372.82,371.277,0.0
51150.0,STARLINK-3357,PAYLOAD,2022-03-14 20:00:01,15.650325,0.0001327,53.2177,3.4847,64.469,168.6925,-0.0077872,-0.00715736,0.0,0 STARLINK-3357,1 51150U 22005AY  22073.83334491 -.00715736  00000-0 -77872-2 0  9994,2 51150  53.2177   3.4847 0001327  64.4690 168.6925 15.65032500  9943,6751.281999999997,92.011,374.043,372.251,0.0
51150.0,STARLINK-3357,PAYLOAD,2022-03-15 00:00:00,15.64776902,0.0001299,53.2176,2.6723,51.9418,40.6967,-0.0078726,-0.00716165,0.0,0 STARLINK-3357,1 51150U 22005AY  22074.00001157 -.00716165  00000-0 -78726-2 0  9990,2 51150  53.2176   2.6723 0001299  51.9418  40.6967 15.64776902  3694,6752.017,92.026,374.76,373.005,0.0
51150.0,STARLINK-3357,PAYLOAD,2022-03-15 20:00:01,15.63501241,0.0001293,53.2175,358.607,56.2495,51.4775,-0.0082574,-0.00714135,0.0,0 STARLINK-3357,1 51150U 22005AY  22074.83334491 -.00714135  00000-0 -82574-2 0  9992,2 51150  53.2175 358.6070 0001293  56.2495  51.4775 15.63501241 10099,6755.69,92.101,378.42800000000005,376.681,0.0
51150.0,STARLINK-3357,PAYLOAD,2022-03-15 22:00:00,15.63374094,0.0001359,53.2175,358.2016,59.5528,157.4719,-0.0083088,-0.00714917,0.0,0 STARLINK-3357,1 51150U 22005AY  22074.91667824 -.00714917  00000-0 -83088-2 0  9999,2 51150  53.2175 358.2016 0001359  59.5528 157.4719 15.63374094  3687,6756.056,92.108,378.839,377.003,0.0
51150.0,STARLINK-3357,PAYLOAD,2022-03-16 14:00:01,15.62353031,0.0001018,53.2175,354.9559,76.3974,293.6343,-0.0086276,-0.00713157,0.0,0 STARLINK-3357,1 51150U 22005AY  22075.58334491 -.00713157  00000-0 -86276-2 0  9991,2 51150  53.2175 354.9559 0001018  76.3974 293.6343 15.62353031  3702,6758.999,92.169,381.552,380.176,0.0
51150.0,STARLINK-3357,PAYLOAD,2022-03-16 20:00:01,15.61973152,0.0001129,53.2177,353.7405,73.6719,263.1039,-0.0088019999999999,-0.00716543,0.0,0 STARLINK-3357,1 51150U 22005AY  22075.83334491 -.00716543  00000-0 -88020-2 0  9990,2 51150  53.2177 353.7405 0001129  73.6719 263.1039 15.61973152 10254,6760.095,92.191,382.723,381.197,0.0
51150.0,STARLINK-3357,PAYLOAD,2022-03-17 14:00:01,15.60822998,0.0001211,53.2176,350.0974,75.5118,159.4333,-0.0091417,-0.00712026,0.0,0 STARLINK-3357,1 51150U 22005AY  22076.58334491 -.00712026  00000-0 -91417-2 0  9999,2 51150  53.2176 350.0974 0001211  75.5118 159.4333 15.60822998  3706,6763.416,92.259,386.1,384.461,0.0
51150.0,STARLINK-3357,PAYLOAD,2022-03-17 22:00:00,15.60314844,0.0001144,53.2177,348.4816,76.6173,232.072,-0.0093678,-0.00715146,0.0,0 STARLINK-3357,1 51150U 22005AY  22076.91667824 -.00715146  00000-0 -93678-2 0  9992,2 51150  53.2177 348.4816 0001144  76.6173 232.0720 15.60314844  3682,6764.884,92.289,387.523,385.975,0.0
51150.0,STARLINK-3357,PAYLOAD,2022-03-18 06:00:00,15.59804157,0.0001004,53.2172,346.8669,77.0656,304.7557,-0.0095232,-0.00713014,0.0,0 STARLINK-3357,1 51150U 22005AY  22077.25001157 -.00713014  00000-0 -95232-2 0  9991,2 51150  53.2172 346.8669 0001004  77.0656 304.7557 15.59804157 10470,6766.36,92.319,388.905,387.546,0.0
